STARLINK-32793          
1 62874U 25022W   26068.46288376  .00035970  00000+0  12214-2 0  9999
2 62874  53.1580 130.8017 0001319  72.4699 287.6446 15.30182610 61867
NUSHSAT1                
1 63211U 25052B   26068.64700493  .00023034  00000+0  74857-3 0  9997
2 63211  97.4095 325.7239 0005501  84.7512 275.4357 15.31903202 54882
